NORAD_CAT_ID,OBJECT_NAME,OBJECT_TYPE,EPOCH,MEAN_MOTION,ECCENTRICITY,INCLINATION,RA_OF_ASC_NODE,ARG_OF_PERICENTER,MEAN_ANOMALY,BSTAR,MEAN_MOTION_DOT,MEAN_MOTION_DDOT,TLE_LINE0,TLE_LINE1,TLE_LINE2,SEMIMAJOR_AXIS,PERIOD,APOGEE,PERIGEE,DECAYED
53638.0,STARLINK-4594,PAYLOAD,2024-05-07 21:32:06,15.08834331,0.0001078,53.2171,355.0569,69.798,290.3128,0.001079,0.00016923,0.0,0 STARLINK-4594,1 53638U 22104BC  24128.89729743  .00016923  00000-0  10790-2 0  9990,2 53638  53.2171 355.0569 0001078  69.7980 290.3128 15.08834331 94963,6917.898,95.438,540.508,539.017,0.0
53638.0,STARLINK-4594,PAYLOAD,2024-05-08 02:18:16,15.08837757,0.0001121,53.2171,354.1645,68.025,292.0861,0.0015059,0.00023758,0.0,0 STARLINK-4594,1 53638U 22104BC  24129.09601859  .00023758  00000-0  15059-2 0  9997,2 53638  53.2171 354.1645 0001121  68.0250 292.0861 15.08837757 93977,6917.887,95.438,540.528,538.977,0.0
53638.0,STARLINK-4594,PAYLOAD,2024-05-08 11:50:34,15.08835031,0.000112,53.2171,352.38,77.5038,282.6079,0.00048118,7.377e-05,0.0,0 STARLINK-4594,1 53638U 22104BC  24129.49346005  .00007377  00000-0  48118-3 0  9992,2 53638  53.2171 352.3800 0001120  77.5038 282.6079 15.08835031 94035,6917.896,95.438,540.535,538.986,0.0
53638.0,STARLINK-4594,PAYLOAD,2024-05-08 15:01:21,15.0883908,0.0001123,53.2172,351.7851,75.1824,284.9292,0.00036307,5.495e-05,0.0,0 STARLINK-4594,1 53638U 22104BC  24129.62594014  .00005495  00000-0  36307-3 0  9998,2 53638  53.2172 351.7851 0001123  75.1824 284.9292 15.08839080 95070,6917.883,95.438,540.525,538.971,0.0
53638.0,STARLINK-4594,PAYLOAD,2024-05-08 21:22:53,15.08850319,0.0001159,53.2172,350.5958,70.1979,289.9138,0.0010201,0.00015989,0.0,0 STARLINK-4594,1 53638U 22104BC  24129.89090010  .00015989  00000-0  10201-2 0  9997,2 53638  53.2172 350.5958 0001159  70.1979 289.9138 15.08850319 95117,6917.849,95.437,540.516,538.912,0.0
53638.0,STARLINK-4594,PAYLOAD,2024-05-09 00:33:39,15.0885559,0.0001155,53.2172,350.001,69.6532,290.4584,0.0010883,0.00017082,0.0,0 STARLINK-4594,1 53638U 22104BC  24130.02337887  .00017082  00000-0  10883-2 0  9992,2 53638  53.2172 350.0010 0001155  69.6532 290.4584 15.08855590 94112,6917.833,95.437,540.497,538.899,0.0
53638.0,STARLINK-4594,PAYLOAD,2024-05-09 19:38:17,15.0885261,0.0001035,53.2173,346.4323,53.5585,306.5503,0.00079169,0.00012339,0.0,0 STARLINK-4594,1 53638U 22104BC  24130.81825993  .00012339  00000-0  79169-3 0  9992,2 53638  53.2173 346.4323 0001035  53.5585 306.5503 15.08852610 94239,6917.842,95.437,540.423,538.991,0.0
53638.0,STARLINK-4594,PAYLOAD,2024-05-09 21:13:40,15.08850405,9.19e-05,53.2173,346.1354,86.022,274.0877,0.00062245,9.635e-05,0.0,0 STARLINK-4594,1 53638U 22104BC  24130.88449909  .00009635  00000-0  62245-3 0  9990,2 53638  53.2173 346.1354 0000919  86.0220 274.0877 15.08850405 95264,6917.849,95.437,540.349,539.078,0.0
53638.0,STARLINK-4594,PAYLOAD,2024-05-10 06:45:59,15.08858828,0.0001154,53.2173,344.3514,71.2815,288.8302,0.00067319,0.00010448,0.0,0 STARLINK-4594,1 53638U 22104BC  24131.28193611  .00010448  00000-0  67319-3 0  9992,2 53638  53.2173 344.3514 0001154  71.2815 288.8302 15.08858828 95320,6917.823,95.436,540.486,538.89,0.0
53638.0,STARLINK-4594,PAYLOAD,2024-05-10 21:04:27,15.08845123,0.0001252,53.2174,341.6748,108.7433,251.3695,0.00035242,5.326e-05,0.0,0 STARLINK-4594,1 53638U 22104BC  24131.87810072  .00005326  00000-0  35242-3 0  9993,2 53638  53.2174 341.6748 0001252 108.7433 251.3695 15.08845123 94391,6917.865,95.437,540.596,538.864,0.0
53638.0,STARLINK-4594,PAYLOAD,2024-05-11 20:55:11,15.08835046,0.0001715,53.2177,337.2154,98.7211,261.3975,0.00053885,8.297e-05,0.0,0 STARLINK-4594,1 53638U 22104BC  24132.87165996  .00008297  00000-0  53885-3 0  9995,2 53638  53.2177 337.2154 0001715  98.7211 261.3975 15.08835046 94544,6917.896,95.438,540.947,538.574,0.0
53638.0,STARLINK-4594,PAYLOAD,2024-05-12 06:27:32,15.08770878,0.0002239,53.2176,335.4312,94.2273,265.8975,-0.0012235,-0.00019671,0.0,0 STARLINK-4594,1 53638U 22104BC  24133.26913120 -.00019671  00000-0 -12235-2 0  9992,2 53638  53.2176 335.4312 0002239  94.2273 265.8975 15.08770878 94607,6918.092,95.442,541.506,538.408,0.0
53638.0,STARLINK-4594,PAYLOAD,2024-05-12 20:46:07,15.08635065,0.000148,53.2177,332.7534,117.6834,242.4308,0.00085743,0.00013308,0.0,0 STARLINK-4594,1 53638U 22104BC  24133.86536804  .00013308  00000-0  85743-3 0  9992,2 53638  53.2177 332.7534 0001480 117.6834 242.4308 15.08635065 94692,6918.507,95.451,541.396,539.348,0.0
53638.0,STARLINK-4594,PAYLOAD,2024-05-13 06:18:26,15.08807367,8.45e-05,53.2178,330.9693,111.1602,248.948,0.0057094,0.00091679,0.0,0 STARLINK-4594,1 53638U 22104BC  24134.26281060  .00091679  00000-0  57094-2 0  9992,2 53638  53.2178 330.9693 0000845 111.1602 248.9480 15.08807367 94750,6917.98,95.44,540.43,539.261,0.0
53638.0,STARLINK-4594,PAYLOAD,2024-05-13 19:01:31,15.08866653,6.14e-05,53.217,328.5905,113.7166,246.389,0.0011041,0.0001734,0.0,0 STARLINK-4594,1 53638U 22104BC  24134.79272069  .00017340  00000-0  11041-2 0  9994,2 53638  53.2170 328.5905 0000614 113.7166 246.3890 15.08866653 94837,6917.799,95.436,540.089,539.239,0.0
53638.0,STARLINK-4594,PAYLOAD,2024-05-13 22:12:17,15.08882382,0.0001296,53.217,327.9969,91.5419,268.5722,0.0010797,0.00016957,0.0,0 STARLINK-4594,1 53638U 22104BC  24134.92519689  .00016957  00000-0  10797-2 0  9991,2 53638  53.2170 327.9969 0001296  91.5419 268.5722 15.08882382 95873,6917.751,95.435,540.512,538.719,0.0
53638.0,STARLINK-4594,PAYLOAD,2024-05-14 12:30:43,15.08899228,0.0001432,53.2174,325.3197,92.1294,267.9862,0.00095549,0.00014976,0.0,0 STARLINK-4594,1 53638U 22104BC  24135.52133690  .00014976  00000-0  95549-3 0  9990,2 53638  53.2174 325.3197 0001432  92.1294 267.9862 15.08899228 95967,6917.699,95.434,540.555,538.574,0.0
53638.0,STARLINK-4594,PAYLOAD,2024-05-14 18:52:15,15.08906794,0.0001299,53.2171,324.1304,92.112,268.002,0.00096162,0.00015077,0.0,0 STARLINK-4594,1 53638U 22104BC  24135.78628531  .00015077  00000-0  96162-3 0  9996,2 53638  53.2171 324.1304 0001299  92.1120 268.0020 15.08906794 96001,6917.676,95.433,540.44,538.643,0.0
53638.0,STARLINK-4594,PAYLOAD,2024-05-15 05:59:54,15.08925898,4.09e-05,53.2177,322.0442,119.4173,240.6859,0.0012157,0.00019158,0.0,0 STARLINK-4594,1 53638U 22104BC  24136.24993938  .00019158  00000-0  12157-2 0  9999,2 53638  53.2177 322.0442 0000409 119.4173 240.6859 15.08925898 96079,6917.618,95.432,539.766,539.2,0.0
53638.0,STARLINK-4594,PAYLOAD,2024-05-15 18:42:59,15.08873825,0.0001342,53.2179,319.6675,85.9348,274.1797,-0.00015699,-2.788e-05,0.0,0 STARLINK-4594,1 53638U 22104BC  24136.77985639 -.00002788  00000-0 -15699-3 0  9994,2 53638  53.2179 319.6675 0001342  85.9348 274.1797 15.08873825 95130,6917.777,95.435,540.57,538.714,0.0
53638.0,STARLINK-4594,PAYLOAD,2024-05-15 21:53:45,15.08875156,0.0001368,53.2177,319.0726,91.8143,268.3006,0.00028929,4.323e-05,0.0,0 STARLINK-4594,1 53638U 22104BC  24136.91233451  .00004323  00000-0  28929-3 0  9993,2 53638  53.2177 319.0726 0001368  91.8143 268.3006 15.08875156 96178,6917.773,95.435,540.584,538.692,0.0
53638.0,STARLINK-4594,PAYLOAD,2024-05-16 12:12:14,15.08866897,0.0001351,53.2165,316.3956,103.9085,256.2058,0.00091998,0.00014395,0.0,0 STARLINK-4594,1 53638U 22104BC  24137.50849577  .00014395  00000-0  91998-3 0  9997,2 53638  53.2165 316.3956 0001351 103.9085 256.2058 15.08866897 95244,6917.798,95.436,540.598,538.729,0.0
53638.0,STARLINK-4594,PAYLOAD,2024-05-16 18:33:46,15.08837903,6.91e-05,53.216,315.2065,67.0125,293.094,0.001265,0.00019901,0.0,0 STARLINK-4594,1 53638U 22104BC  24137.77346035  .00019901  00000-0  12650-2 0  9992,2 53638  53.2160 315.2065 0000691  67.0125 293.0940 15.08837903 95288,6917.887,95.438,540.23,539.274,0.0
53638.0,STARLINK-4594,PAYLOAD,2024-05-16 21:44:33,15.08833852,0.0001016,53.2173,314.6127,75.1845,284.926,0.001358,0.00021387,0.0,0 STARLINK-4594,1 53638U 22104BC  24137.90594192  .00021387  00000-0  13580-2 0  9990,2 53638  53.2173 314.6127 0001016  75.1845 284.9260 15.08833852 96324,6917.899,95.438,540.467,539.061,0.0
53638.0,STARLINK-4594,PAYLOAD,2024-05-17 12:03:02,15.08832841,0.000184,53.2171,311.9376,86.5173,273.603,0.0011026,0.000173,0.0,0 STARLINK-4594,1 53638U 22104BC  24138.50211102  .00017300  00000-0  11026-2 0  9997,2 53638  53.2171 311.9376 0001840  86.5173 273.6030 15.08832841 95396,6917.902,95.438,541.04,538.494,0.0
53638.0,STARLINK-4594,PAYLOAD,2024-05-18 03:56:54,15.08829123,2.69e-05,53.2178,308.9639,11.0541,349.0457,0.00093701,0.00014652,0.0,0 STARLINK-4594,1 53638U 22104BC  24139.16452123  .00014652  00000-0  93701-3 0  9998,2 53638  53.2178 308.9639 0000269  11.0541 349.0457 15.08829123 95498,6917.914,95.438,539.965,539.593,0.0
53638.0,STARLINK-4594,PAYLOAD,2024-05-18 11:53:50,15.08828956,4.75e-05,53.2177,307.4778,71.9201,288.1843,0.00062115,9.609e-05,0.0,0 STARLINK-4594,1 53638U 22104BC  24139.49572548  .00009609  00000-0  62115-3 0  9999,2 53638  53.2177 307.4778 0000475  71.9201 288.1843 15.08828956 96566,6917.914,95.438,540.108,539.451,0.0
53638.0,STARLINK-4594,PAYLOAD,2024-05-18 18:15:22,15.08864133,0.0001178,53.215,306.2893,81.1248,278.9878,0.0017273,0.00027327,0.0,0 STARLINK-4594,1 53638U 22104BC  24139.76068095  .00027327  00000-0  17273-2 0  9997,2 53638  53.2150 306.2893 0001178  81.1248 278.9878 15.08864133 95580,6917.807,95.436,540.487,538.857,0.0
53638.0,STARLINK-4594,PAYLOAD,2024-05-18 21:26:08,15.08885226,0.0001337,53.2173,305.6953,86.2226,273.8919,0.002184,0.00034685,0.0,0 STARLINK-4594,1 53638U 22104BC  24139.89315540  .00034685  00000-0  21840-2 0  9991,2 53638  53.2173 305.6953 0001337  86.2226 273.8919 15.08885226 96626,6917.742,95.435,540.532,538.682,0.0
53638.0,STARLINK-4594,PAYLOAD,2024-05-19 03:47:40,15.08914086,0.0001371,53.2184,304.5063,88.6156,271.4994,0.0021485,0.00034141,0.0,0 STARLINK-4594,1 53638U 22104BC  24140.15810227  .00034141  00000-0  21485-2 0  9996,2 53638  53.2184 304.5063 0001371  88.6156 271.4994 15.08914086 95649,6917.654,95.433,540.467,538.571,0.0
